KUIPER-00028            
1 63741U 25088T   26063.36192456  .00003680  00000+0  51058-3 0  9995
2 63741  51.8989 116.6123 0000624  77.0276 283.0756 14.80003574 47277
KUIPER-00029            
1 63742U 25088U   26063.44332871  .00007854  00000+0  96965-3 0  9995
2 63742  51.9007 113.9122 0000704  99.8509 260.2535 14.83608419 46845
KUIPER-00030            
1 63743U 25088V   26063.57949167 -.00001464  00000+0 -16255-3 0  9999
2 63743  51.9000 133.1429 0010913  52.8570 307.3388 14.79931199 46874
KUIPER-00031            
1 63744U 25088W   26063.51778986  .00007427  00000+0  91847-3 0  9996
2 63744  51.8993 118.6945 0002182 127.3613 232.7550 14.83605758 46787
KUIPER-00032            
1 63745U 25088X   26063.33744210  .00024737  00000+0  67870-3 0  9992
2 63745  51.8699  50.1004 0005313  92.7924 267.3671 15.37109379 48728
KUIPER-00033            
1 63746U 25088Y   26063.43425766  .00009242  00000+0  11416-2 0  9994
2 63746  51.9006 149.2249 0000831  43.8687 316.2343 14.83400226 46831
KUIPER-00034            
1 63747U 25088Z   26063.32220489  .00007615  00000+0  94221-3 0  9996
2 63747  51.9020 112.0630 0001769 338.1324  21.9564 14.83554949 47028
KUIPER-00035            
1 63748U 25088AA  26063.83336806 -.00032261  00000+0 -38976-2 0  9995
2 63748  51.8987 135.4565 0003920  59.4853 308.5338 14.83259916  3051
KUIPER-00037            
1 63749U 25088AB  26063.50927822  .00018913  00000+0  25043-2 0  9991
2 63749  51.8999 135.9690 0000908  54.6935 305.4112 14.79910111 47544
KUIPER-00038            
1 63750U 25088AC  26063.45792776  .00004434  00000+0  61021-3 0  9995
2 63750  51.9021 121.2260 0000675  85.8482 274.2557 14.79937295 46747
KUIPER-00039            
1 64500U 25134A   26063.56566272  .00004464  00000+0  61426-3 0  9995
2 64500  51.8998 255.7509 0001032  64.3313 295.7755 14.79928998 39318
KUIPER-00040            
1 64501U 25134B   26063.82320315  .00009934  00000+0  13272-2 0  9993
2 64501  51.8984 265.7490 0013507 248.7136 111.2384 14.79979044 39199
KUIPER-00041            
1 64502U 25134C   26063.55774350  .00004422  00000+0  62633-3 0  9999
2 64502  51.8986 268.3368 0007155 248.4948 111.5251 14.78704906 39137
KUIPER-00042            
1 64503U 25134D   26063.82590638  .00015712  00000+0  20845-2 0  9997
2 64503  51.8981 263.1006 0007543 265.2414  94.7687 14.79931733 39238
KUIPER-00043            
1 64504U 25134E   26063.54439629  .00005522  00000+0  68702-3 0  9992
2 64504  51.9002 255.9107 0000917 309.3130  50.7753 14.83793091 39311
KUIPER-00044            
1 64505U 25134F   26063.82047779 -.00009495  00000+0 -12183-2 0  9991
2 64505  51.9015 268.1225 0007524 258.4771 101.5346 14.79903441 39162
KUIPER-00046            
1 64506U 25134G   26063.82482427  .00000299  00000+0  68301-4 0  9991
2 64506  51.8983 264.5646 0000856 101.0614 259.0445 14.79921989 39215
